OBJECT_NAME,OBJECT_ID,EPOCH,MEAN_MOTION,ECCENTRICITY,INCLINATION,RA_OF_ASC_NODE,ARG_OF_PERICENTER,MEAN_ANOMALY,EPHEMERIS_TYPE,CLASSIFICATION_TYPE,NORAD_CAT_ID,ELEMENT_SET_NO,REV_AT_EPOCH,BSTAR,MEAN_MOTION_DOT,MEAN_MOTION_DDOT
QIANFAN-172,2026-124H,2026-06-27T22:56:16.300608,14.19639898,.00034849,88.9984,0.8116,133.5523,226.5956,0,U,69389,999,334,.42155778E-4,.103E-5,0
QIANFAN-173,2026-124J,2026-06-27T22:43:14.750400,14.20511259,.00036871,88.9984,0.8103,125.3609,234.7926,0,U,69390,999,334,.42102932E-4,.105E-5,0
QIANFAN-174,2026-124K,2026-06-27T22:34:52.711968,14.20879936,.00039469,88.9984,0.8093,130.7563,229.3971,0,U,69391,999,334,.46346556E-4,.115E-5,0
QIANFAN-175,2026-124L,2026-06-27T22:29:22.486848,14.21341323,.00045985,88.9984,0.8087,143.2384,216.9123,0,U,69392,999,334,.427901E-4,.108E-5,0
QIANFAN-176,2026-124M,2026-06-27T22:21:38.762496,14.21842643,.00035448,88.9984,0.8080,146.6522,213.4893,0,U,69393,999,334,.43576807E-4,.11E-5,0
QIANFAN-177,2026-124N,2026-06-27T22:09:24.175008,14.22732021,.00045478,88.9984,0.8067,124.1311,236.0313,0,U,69394,999,334,.42763771E-4,.11E-5,0
QIANFAN-178,2026-124P,2026-06-27T22:15:15.914592,14.22275682,.00038894,88.9983,0.8072,133.3205,226.8311,0,U,69395,999,334,.47793682E-4,.121E-5,0
QIANFAN-179,2026-124Q,2026-06-27T22:03:24.398496,14.23098687,.0003884,88.9983,0.8059,129.6343,230.5192,0,U,69396,999,334,.40640758E-4,.106E-5,0
QIANFAN-180,2026-124R,2026-06-27T21:57:13.474656,14.23620425,.00042038,88.9984,0.8054,138.8797,221.2713,0,U,69397,999,334,.50138504E-4,.129E-5,0
QIANFAN-181,2026-124S,2026-06-27T22:05:26.064384,14.16650587,.00029747,88.9984,0.8249,105.5260,254.6257,0,U,69398,999,333,.40431437E-4,.95E-6,0
QIANFAN-182,2026-124T,2026-06-27T21:29:36.595680,14.18739994,.00032957,88.9984,0.8212,125.0056,235.1443,0,U,69399,999,333,.47890055E-4,.114E-5,0
QIANFAN-183,2026-125A,2026-06-27T20:46:43.220064,14.16466211,.00153999,88.9954,279.2412,141.1636,219.0662,0,U,69401,999,321,.16751916E-3,.348E-5,0
QIANFAN-184,2026-125B,2026-06-27T22:16:14.810016,14.16886377,.00162885,88.9954,279.2321,135.3606,224.8897,0,U,69402,999,322,.18132274E-3,.378E-5,0
QIANFAN-185,2026-125C,2026-06-27T22:24:11.350944,14.16091136,.0017116,88.9955,279.2328,135.8891,224.3665,0,U,69403,999,322,.17842871E-3,.367E-5,0
QIANFAN-186,2026-125D,2026-06-27T22:03:57.329856,14.17437220,.00155826,88.9955,279.2308,136.6621,223.5796,0,U,69404,999,322,.17828387E-3,.376E-5,0
QIANFAN-187,2026-125E,2026-06-27T21:51:46.326240,14.18347903,.00160868,88.9955,279.2294,137.7384,222.5048,0,U,69405,999,322,.17336212E-3,.372E-5,0
QIANFAN-188,2026-125F,2026-06-27T21:36:35.061120,14.19440195,.00160568,88.9955,279.2277,141.2181,219.0165,0,U,69406,999,322,.17425245E-3,.381E-5,0
QIANFAN-189,2026-125G,2026-06-27T21:42:57.118464,14.18759150,.0015307,88.9955,279.2285,138.6630,221.5721,0,U,69407,999,322,.17235684E-3,.373E-5,0
QIANFAN-190,2026-125H,2026-06-27T21:36:27.415584,14.19222230,.00160879,88.9955,279.2280,140.2721,219.9650,0,U,69408,999,322,.17300328E-3,.377E-5,0
QIANFAN-191,2026-125J,2026-06-27T21:22:42.604896,14.20093576,.00154925,88.9955,279.2263,139.1059,221.1297,0,U,69409,999,322,.17766618E-3,.393E-5,0
QIANFAN-192,2026-125K,2026-06-27T21:15:43.448256,14.20519567,.00163646,88.9955,279.2258,139.4902,220.7510,0,U,69410,999,322,.17755631E-3,.396E-5,0
QIANFAN-193,2026-125L,2026-06-27T21:07:03.416160,14.20962159,.00162488,88.9955,279.2248,139.8520,220.3875,0,U,69411,999,322,.18095705E-3,.407E-5,0
QIANFAN-194,2026-125M,2026-06-27T21:00:50.535360,14.21403894,.00155372,88.9954,279.2241,143.3685,216.8571,0,U,69412,999,321,.17780487E-3,.403E-5,0
QIANFAN-195,2026-125N,2026-06-27T20:55:03.142560,14.21801262,.00167367,88.9955,279.2235,142.1171,218.1201,0,U,69413,999,322,.17892519E-3,.409E-5,0
QIANFAN-196,2026-125P,2026-06-27T20:48:10.452096,14.22296354,.00168437,88.9955,279.2228,142.5526,217.6842,0,U,69414,999,322,.17345759E-3,.4E-5,0
QIANFAN-197,2026-125Q,2026-06-27T22:24:05.607936,14.22740840,.00151276,88.9955,279.2142,139.3994,220.8329,0,U,69415,999,322,.16983272E-3,.395E-5,0
QIANFAN-198,2026-125R,2026-06-27T20:49:35.183712,14.22067500,.00154359,88.9955,279.2229,139.0528,221.1825,0,U,69416,999,322,.17304767E-3,.398E-5,0
QIANFAN-199,2026-125S,2026-06-27T22:13:41.888928,14.23631142,.00171482,88.9954,279.2130,139.8330,220.4133,0,U,69417,999,323,.17568462E-3,.415E-5,0
QIANFAN-200,2026-125T,2026-06-27T21:28:28.472736,14.19641106,.00161848,88.9955,279.2270,138.0109,222.2325,0,U,69418,999,322,.17562934E-3,.386E-5,0
