QIANFAN-172             
1 69389U 26124H   26178.95574422  .00000103  00000+0  42156-4 0  9997
2 69389  88.9984   0.8116 0003484 133.5523 226.5956 14.19639898  3343
QIANFAN-173             
1 69390U 26124J   26178.94669850  .00000105  00000+0  42103-4 0  9992
2 69390  88.9984   0.8103 0003687 125.3609 234.7926 14.20511259  3340
QIANFAN-174             
1 69391U 26124K   26178.94088787  .00000115  00000+0  46347-4 0  9992
2 69391  88.9984   0.8093 0003946 130.7563 229.3971 14.20879936  3345
QIANFAN-175             
1 69392U 26124L   26178.93706582  .00000108  00000+0  42790-4 0  9992
2 69392  88.9984   0.8087 0004598 143.2384 216.9123 14.21341323  3349
QIANFAN-176             
1 69393U 26124M   26178.93169864  .00000110  00000+0  43577-4 0  9996
2 69393  88.9984   0.8080 0003544 146.6522 213.4893 14.21842643  3341
QIANFAN-177             
1 69394U 26124N   26178.92319647  .00000110  00000+0  42764-4 0  9999
2 69394  88.9984   0.8067 0004547 124.1311 236.0313 14.22732021  3345
QIANFAN-178             
1 69395U 26124P   26178.92726753  .00000121  00000+0  47794-4 0  9990
2 69395  88.9983   0.8072 0003889 133.3205 226.8311 14.22275682  3343
QIANFAN-179             
1 69396U 26124Q   26178.91903239  .00000106  00000+0  40641-4 0  9993
2 69396  88.9983   0.8059 0003884 129.6343 230.5192 14.23098687  3343
QIANFAN-180             
1 69397U 26124R   26178.91473929  .00000129  00000+0  50139-4 0  9990
2 69397  88.9984   0.8054 0004203 138.8797 221.2713 14.23620425  3348
QIANFAN-181             
1 69398U 26124S   26178.92044056  .00000095  00000+0  40431-4 0  9993
2 69398  88.9984   0.8249 0002974 105.5260 254.6257 14.16650587  3330
QIANFAN-182             
1 69399U 26124T   26178.89556245  .00000114  00000+0  47890-4 0  9996
2 69399  88.9984   0.8212 0003295 125.0056 235.1443 14.18739994  3331
QIANFAN-183             
1 69401U 26125A   26178.86577801  .00000348  00000+0  16752-3 0  9990
2 69401  88.9954 279.2412 0015399 141.1636 219.0662 14.16466211  3215
QIANFAN-184             
1 69402U 26125B   26178.92794919  .00000378  00000+0  18132-3 0  9996
2 69402  88.9954 279.2321 0016288 135.3606 224.8897 14.16886377  3229
QIANFAN-185             
1 69403U 26125C   26178.93346471  .00000367  00000+0  17843-3 0  9990
2 69403  88.9955 279.2328 0017116 135.8891 224.3665 14.16091136  3229
QIANFAN-186             
1 69404U 26125D   26178.91941354  .00000376  00000+0  17828-3 0  9993
2 69404  88.9955 279.2308 0015582 136.6621 223.5796 14.17437220  3228
QIANFAN-187             
1 69405U 26125E   26178.91095285  .00000372  00000+0  17336-3 0  9997
2 69405  88.9955 279.2294 0016086 137.7384 222.5048 14.18347903  3229
QIANFAN-188             
1 69406U 26125F   26178.90040580  .00000381  00000+0  17425-3 0  9994
2 69406  88.9955 279.2277 0016056 141.2181 219.0165 14.19440195  3222
QIANFAN-189             
1 69407U 26125G   26178.90482776  .00000373  00000+0  17236-3 0  9993
2 69407  88.9955 279.2285 0015307 138.6630 221.5721 14.18759150  3228
QIANFAN-190             
1 69408U 26125H   26178.90031731  .00000377  00000+0  17300-3 0  9991
2 69408  88.9955 279.2280 0016087 140.2721 219.9650 14.19222230  3227
QIANFAN-191             
1 69409U 26125J   26178.89077089  .00000393  00000+0  17767-3 0  9991
2 69409  88.9955 279.2263 0015492 139.1059 221.1297 14.20093576  3222
QIANFAN-192             
1 69410U 26125K   26178.88591954  .00000396  00000+0  17756-3 0  9995
2 69410  88.9955 279.2258 0016364 139.4902 220.7510 14.20519567  3223
QIANFAN-193             
1 69411U 26125L   26178.87990065  .00000407  00000+0  18096-3 0  9992
2 69411  88.9955 279.2248 0016248 139.8520 220.3875 14.20962159  3223
QIANFAN-194             
1 69412U 26125M   26178.87558490  .00000403  00000+0  17780-3 0  9990
2 69412  88.9954 279.2241 0015537 143.3685 216.8571 14.21403894  3217
QIANFAN-195             
1 69413U 26125N   26178.87156415  .00000409  00000+0  17893-3 0  9993
2 69413  88.9955 279.2235 0016736 142.1171 218.1201 14.21801262  3228
QIANFAN-196             
1 69414U 26125P   26178.86678764  .00000400  00000+0  17346-3 0  9993
2 69414  88.9955 279.2228 0016843 142.5526 217.6842 14.22296354  3224
QIANFAN-197             
1 69415U 26125Q   26178.93339824  .00000395  00000+0  16983-3 0  9992
2 69415  88.9955 279.2142 0015127 139.3994 220.8329 14.22740840  3227
QIANFAN-198             
1 69416U 26125R   26178.86776833  .00000398  00000+0  17305-3 0  9992
2 69416  88.9955 279.2229 0015435 139.0528 221.1825 14.22067500  3226
QIANFAN-199             
1 69417U 26125S   26178.92617927  .00000415  00000+0  17568-3 0  9999
2 69417  88.9954 279.2130 0017148 139.8330 220.4133 14.23631142  3234
QIANFAN-200             
1 69418U 26125T   26178.89477399  .00000386  00000+0  17563-3 0  9995
2 69418  88.9955 279.2270 0016184 138.0109 222.2325 14.19641106  3223
